{
  "links" : {
    "next" : "https://api.nasa.gov/neo/rest/v1/feed?start_date=2005-03-23&end_date=2005-03-23&detailed=true&api_key=t0TVs3DtDT2H8Oy2Zy8m2eVrNsAVKAexjcZXUckd",
    "prev" : "https://api.nasa.gov/neo/rest/v1/feed?start_date=2005-03-21&end_date=2005-03-21&detailed=true&api_key=t0TVs3DtDT2H8Oy2Zy8m2eVrNsAVKAexjcZXUckd",
    "self" : "https://api.nasa.gov/neo/rest/v1/feed?start_date=2005-03-22&end_date=2005-03-22&detailed=true&api_key=t0TVs3DtDT2H8Oy2Zy8m2eVrNsAVKAexjcZXUckd"
  },
  "element_count" : 9,
  "near_earth_objects" : {
    "2005-03-22" : [ {
      "links" : {
        "self" : "https://api.nasa.gov/neo/rest/v1/neo/2140333?api_key=t0TVs3DtDT2H8Oy2Zy8m2eVrNsAVKAexjcZXUckd"
      },
      "neo_reference_id" : "2140333",
      "name" : "140333 (2001 TD2)",
      "nasa_jpl_url" : "http://ssd.jpl.nasa.gov/sbdb.cgi?sstr=2140333",
      "absolute_magnitude_h" : 18.8,
      "estimated_diameter" : {
        "kilometers" : {
          "estimated_diameter_min" : 0.4619074603,
          "estimated_diameter_max" : 1.0328564805
        },
        "meters" : {
          "estimated_diameter_min" : 461.9074602816,
          "estimated_diameter_max" : 1032.8564805039
        },
        "miles" : {
          "estimated_diameter_min" : 0.2870159005,
          "estimated_diameter_max" : 0.6417870641
        },
        "feet" : {
          "estimated_diameter_min" : 1515.4444719902,
          "estimated_diameter_max" : 3388.6368554964
        }
      },
      "is_potentially_hazardous_asteroid" : false,
      "close_approach_data" : [ {
        "close_approach_date" : "2005-03-22",
        "epoch_date_close_approach" : 1111478400000,
        "relative_velocity" : {
          "kilometers_per_second" : "23.0622796605",
          "kilometers_per_hour" : "83024.2067777302",
          "miles_per_hour" : "51588.0133725291"
        },
        "miss_distance" : {
          "astronomical" : "0.4746104016",
          "lunar" : "184.6234436035",
          "kilometers" : "71000704",
          "miles" : "44117792"
        },
        "orbiting_body" : "Earth"
      } ],
      "orbital_data" : {
        "orbit_id" : "46",
        "orbit_determination_date" : "2017-04-06 09:27:39",
        "orbit_uncertainty" : "1",
        "minimum_orbit_intersection" : ".185035",
        "jupiter_tisserand_invariant" : "6.122",
        "epoch_osculation" : "2458000.5",
        "eccentricity" : ".4815993593078567",
        "semi_major_axis" : ".9619018787737675",
        "inclination" : "19.03363417407057",
        "ascending_node_longitude" : "12.86211200268806",
        "orbital_period" : "344.5835860570802",
        "perihelion_distance" : ".4986505502392974",
        "perihelion_argument" : "199.0718012898012",
        "aphelion_distance" : "1.425153207308238",
        "perihelion_time" : "2457943.385692984419",
        "mean_anomaly" : "59.66955872994814",
        "mean_motion" : "1.044739257952833",
        "equinox" : "J2000"
      }
    }, {
      "links" : {
        "self" : "https://api.nasa.gov/neo/rest/v1/neo/2141531?api_key=t0TVs3DtDT2H8Oy2Zy8m2eVrNsAVKAexjcZXUckd"
      },
      "neo_reference_id" : "2141531",
      "name" : "141531 (2002 GB)",
      "nasa_jpl_url" : "http://ssd.jpl.nasa.gov/sbdb.cgi?sstr=2141531",
      "absolute_magnitude_h" : 19.1,
      "estimated_diameter" : {
        "kilometers" : {
          "estimated_diameter_min" : 0.4023045798,
          "estimated_diameter_max" : 0.8995803882
        },
        "meters" : {
          "estimated_diameter_min" : 402.3045798343,
          "estimated_diameter_max" : 899.5803881691
        },
        "miles" : {
          "estimated_diameter_min" : 0.2499803991,
          "estimated_diameter_max" : 0.5589731654
        },
        "feet" : {
          "estimated_diameter_min" : 1319.8969577037,
          "estimated_diameter_max" : 2951.3793207207
        }
      },
      "is_potentially_hazardous_asteroid" : false,
      "close_approach_data" : [ {
        "close_approach_date" : "2005-03-22",
        "epoch_date_close_approach" : 1111478400000,
        "relative_velocity" : {
          "kilometers_per_second" : "16.6930838743",
          "kilometers_per_hour" : "60095.1019474044",
          "miles_per_hour" : "37340.7593183747"
        },
        "miss_distance" : {
          "astronomical" : "0.2817509606",
          "lunar" : "109.6011199951",
          "kilometers" : "42149344",
          "miles" : "26190386"
        },
        "orbiting_body" : "Earth"
      } ],
      "orbital_data" : {
        "orbit_id" : "158",
        "orbit_determination_date" : "2017-05-19 05:49:14",
        "orbit_uncertainty" : "0",
        "minimum_orbit_intersection" : ".280942",
        "jupiter_tisserand_invariant" : "5.929",
        "epoch_osculation" : "2458000.5",
        "eccentricity" : ".5290537246532754",
        "semi_major_axis" : ".9920469515681014",
        "inclination" : "22.55638706557275",
        "ascending_node_longitude" : "40.8276420539291",
        "orbital_period" : "360.9082147118372",
        "perihelion_distance" : ".4672008168100699",
        "perihelion_argument" : "8.313840617243045",
        "aphelion_distance" : "1.516893086326133",
        "perihelion_time" : "2458072.143123497748",
        "mean_anomaly" : "288.537164276568",
        "mean_motion" : ".997483529953558",
        "equinox" : "J2000"
      }
    }, {
      "links" : {
        "self" : "https://api.nasa.gov/neo/rest/v1/neo/3274164?api_key=t0TVs3DtDT2H8Oy2Zy8m2eVrNsAVKAexjcZXUckd"
      },
      "neo_reference_id" : "3274164",
      "name" : "(2005 EG169)",
      "nasa_jpl_url" : "http://ssd.jpl.nasa.gov/sbdb.cgi?sstr=3274164",
      "absolute_magnitude_h" : 24.9,
      "estimated_diameter" : {
        "kilometers" : {
          "estimated_diameter_min" : 0.0278326768,
          "estimated_diameter_max" : 0.0622357573
        },
        "meters" : {
          "estimated_diameter_min" : 27.8326768072,
          "estimated_diameter_max" : 62.2357573367
        },
        "miles" : {
          "estimated_diameter_min" : 0.0172944182,
          "estimated_diameter_max" : 0.0386714948
        },
        "feet" : {
          "estimated_diameter_min" : 91.3145593761,
          "estimated_diameter_max" : 204.1855621004
        }
      },
      "is_potentially_hazardous_asteroid" : false,
      "close_approach_data" : [ {
        "close_approach_date" : "2005-03-22",
        "epoch_date_close_approach" : 1111478400000,
        "relative_velocity" : {
          "kilometers_per_second" : "14.9685732107",
          "kilometers_per_hour" : "53886.8635585974",
          "miles_per_hour" : "33483.2014150629"
        },
        "miss_distance" : {
          "astronomical" : "0.0495263442",
          "lunar" : "19.2657489777",
          "kilometers" : "7409036",
          "miles" : "4603761.5"
        },
        "orbiting_body" : "Earth"
      } ],
      "orbital_data" : {
        "orbit_id" : "10",
        "orbit_determination_date" : "2017-04-06 09:11:17",
        "orbit_uncertainty" : "2",
        "minimum_orbit_intersection" : ".0365077",
        "jupiter_tisserand_invariant" : "4.567",
        "epoch_osculation" : "2458000.5",
        "eccentricity" : ".4666528977940848",
        "semi_major_axis" : "1.420773489088802",
        "inclination" : "11.73849996734711",
        "ascending_node_longitude" : "169.7851298845792",
        "orbital_period" : "618.5655002153251",
        "perihelion_distance" : ".7577654232965001",
        "perihelion_argument" : "91.3135930189728",
        "aphelion_distance" : "2.083781554881104",
        "perihelion_time" : "2457833.171568782747",
        "mean_anomaly" : "97.38376165053189",
        "mean_motion" : ".5819917209651727",
        "equinox" : "J2000"
      }
    } ]
  }
}